LEDSAT                  
1 49069U 21073D   24212.47517955  .00022775  00000+0  86799-3 0  9999
2 49069  97.4357 283.3599 0019764 130.3702 229.9266 15.26527351163055
XW-3 (CAS-9)            
1 50466U 21131B   24212.56244591  .00001168  00000+0  38667-3 0  9994
2 50466  98.5279 297.4314 0004127  14.1297 346.0005 14.39758954136240
TEVEL-3                 
1 50988U 22002E   24211.85664250  .01304663  10017-2  19687-2 0  9999
2 50988  97.3554 290.7385 0011613 253.6978 106.3025 16.04728723141790
TEVEL-8                 
1 50989U 22002F   24211.72236620  .01153521  72501-3  19039-2 0  9995
2 50989  97.3618 290.6701 0012338 253.6892 106.3031 16.03133213141760
TEVEL-1                 
1 51013U 22002AF  24212.46574591  .01390380  11643-2  21289-2 0  9993
2 51013  97.3618 291.2198 0012636 254.2053 105.7834 16.04502501141881
TEVEL-7                 
1 51062U 22002CG  24212.50309735  .01669012  19706-2  21921-2 0  9990
2 51062  97.3607 291.5395 0012429 258.1836 101.8052 16.07231295141899
TEVEL-4                 
1 51063U 22002CH  24211.78055949  .00969696  46383-3  18759-2 0  9992
2 51063  97.3651 290.5201 0011726 251.3453 108.6553 16.00342171141769
TEVEL-2                 
1 51069U 22002CP  24211.97724624  .01288260  97914-3  18971-2 0  9996
2 51069  97.3551 290.8419 0011958 253.3790 106.6178 16.05117554141818
GREENCUBE               
1 53106U 22080B   24206.16680960 -.00000003  00000+0  00000+0 0  9999
2 53106  70.1349 179.6741 0007614  98.9379 261.2142  6.42557625 47640
KAI-1 (RS26S)           
1 53378U 22096J   24212.54777919  .00406952  63843-4  13663-2 0  9990
2 53378  97.3879 134.5374 0008930 131.3597 228.8445 15.90008586111072
CAS-5A (FO-118)         
1 54684U 22167C   24212.58359711  .00039991  00000+0  12504-2 0  9999
2 54684  97.6086 358.5367 0009021 352.8189   7.2921 15.33001685 90945
STRATOSAT-TK 1 (RS52S)  
1 57167U 23091B   24212.60128764  .00022228  00000+0  12250-2 0  9993
2 57167  97.6091 265.5907 0013331 334.0920  25.9642 15.13933832 60121
UMKA 1 (RS40S)          
1 57172U 23091G   24212.59883554  .00008112  00000+0  52702-3 0  9995
2 57172  97.6095 264.2156 0015560 338.9680  21.0906 15.08192275 60037
CUBESX-HSE 3 (RS42S)    
1 57178U 23091N   24212.57828831  .00011971  00000+0  74199-3 0  9997
2 57178  97.6125 264.7390 0015799 330.9808  29.0542 15.09800428 60053
MONITOR-4 (RS57S)       
1 57182U 23091S   24212.58028276  .00011230  00000+0  70658-3 0  9992
2 57182  97.6113 264.5222 0016218 332.4123  27.6244 15.09263949 60044
MONITOR-2 (RS39S)       
1 57184U 23091U   24212.56077615  .00008397  00000+0  54547-3 0  9992
2 57184  97.6124 264.5752 0012971 327.4443  32.5984 15.08213001 60046
SVYATOBOR 1 (RS60S)     
1 57187U 23091X   24212.60280783  .00010485  00000+0  64869-3 0  9991
2 57187  97.6128 265.1407 0012038 324.5776  35.4653 15.09949764 60080
VIZARD-METEO (RS38S)    
1 57189U 23091Z   24212.58236199  .00013481  00000+0  79762-3 0  9999
2 57189  97.6114 265.5898 0010931 320.5605  39.4828 15.11517375 60116
NANOZOND 1 (RS49S)      
1 57190U 23091AA  24212.57237954  .00020097  00000+0  10932-2 0  9994
2 57190  97.6090 266.2372 0009186 324.3803  35.6814 15.14460882 60169
POLYTECH-UNIVERSE 3 (R*)
1 57191U 23091AB  24212.56685538  .00008390  00000+0  54458-3 0  9993
2 57191  97.6086 264.2439 0018634 343.7358  16.3269 15.08169511 60039
UTMN 2 (RS27S)          
1 57203U 23091AP  24212.58817032  .00011593  00000+0  69724-3 0  9996
2 57203  97.6115 265.4255 0011290 321.4428  38.5994 15.10960130 60105
ARCCUBE 1 (RS25S)       
1 57205U 23091AR  24212.58133053  .00023693  00000+0  12396-2 0  9998
2 57205  97.6058 266.4168 0009169 325.0280  35.0349 15.15807921 60182
KUZGTU 1 (RS47S)        
1 57217U 23091AV  24212.59129108  .00011443  00000+0  71276-3 0  9991
2 57217  97.6104 264.5936 0015673 333.0736  26.9678 15.09636784 60051
HADES-D (SO-121)        
1 58567U 23174CY  24212.48529228  .00085872  00000+0  24898-2 0  9991
2 58567  97.4506 288.4971 0009829  84.3701 275.8663 15.35162466 40419
